{
    "links": {
        "self": "http://www.neowsapp.com/rest/v1/neo/3989413?api_key=iIulBulltgU6a56xZRHN4H3l9WmuAYTsLGpBGhQ2"
    },
    "id": "3989413",
    "neo_reference_id": "3989413",
    "name": "(2020 CQ)",
    "designation": "2020 CQ",
    "nasa_jpl_url": "http://ssd.jpl.nasa.gov/sbdb.cgi?sstr=3989413",
    "absolute_magnitude_h": 27.012,
    "estimated_diameter": {
        "kilometers": {
            "estimated_diameter_min": 0.0105233733,
            "estimated_diameter_max": 0.0235309781
        },
        "meters": {
            "estimated_diameter_min": 10.5233733006,
            "estimated_diameter_max": 23.5309780528
        },
        "miles": {
            "estimated_diameter_min": 0.006538919,
            "estimated_diameter_max": 0.0146214674
        },
        "feet": {
            "estimated_diameter_min": 34.5255040597,
            "estimated_diameter_max": 77.2013740348
        }
    },
    "is_potentially_hazardous_asteroid": false,
    "close_approach_data": [
        {
            "close_approach_date": "2020-02-03",
            "close_approach_date_full": "2020-Feb-03 17:30",
            "epoch_date_close_approach": 1580751000000,
            "relative_velocity": {
                "kilometers_per_second": "14.8184756431",
                "kilometers_per_hour": "53346.5123152021",
                "miles_per_hour": "33147.4481660766"
            },
            "miss_distance": {
                "astronomical": "0.0102166038",
                "lunar": "3.9742588782",
                "kilometers": "1528382.167113906",
                "miles": "949692.6408116628"
            },
            "orbiting_body": "Earth"
        }
    ],
    "orbital_data": {
        "orbit_id": "2",
        "orbit_determination_date": "2020-09-11 07:47:10",
        "first_observation_date": "2020-01-26",
        "last_observation_date": "2020-02-03",
        "data_arc_in_days": 8,
        "observations_used": 36,
        "orbit_uncertainty": "7",
        "minimum_orbit_intersection": ".0065573",
        "jupiter_tisserand_invariant": "3.303",
        "epoch_osculation": "2459000.5",
        "eccentricity": ".6166200157171986",
        "semi_major_axis": "2.275809322579334",
        "inclination": "12.55288266007428",
        "ascending_node_longitude": "313.3994731230184",
        "orbital_period": "1254.013566900254",
        "perihelion_distance": ".872499742321118",
        "perihelion_argument": "227.8184790340715",
        "aphelion_distance": "3.67911890283755",
        "perihelion_time": "2458916.375784000615",
        "mean_anomaly": "24.15023135247099",
        "mean_motion": ".2870782338422936",
        "equinox": "J2000",
        "orbit_class": {
            "orbit_class_type": "APO",
            "orbit_class_description": "Near-Earth asteroid orbits which cross the Earth’s orbit similar to that of 1862 Apollo",
            "orbit_class_range": "a (semi-major axis) > 1.0 AU; q (perihelion) < 1.017 AU"
        }
    },
    "is_sentry_object": false
}